ONEWEB-0045             
1 45151U 20008W   24307.78738086 -.00000369  00000+0 -10760-2 0  9994
2 45151  87.8888 138.8595 0001611  83.6756 276.4555 13.11415228232894
ONEWEB-0047             
1 45152U 20008X   24307.83663339 -.00000802  00000+0 -23345-2 0  9994
2 45152  87.8911 154.0130 0001474  85.0791 275.0505 13.10371992230750
ONEWEB-0048             
1 45153U 20008Y   24307.83165526 -.00000545  00000+0 -15965-2 0  9993
2 45153  87.8913 154.0320 0001426  84.6773 275.4517 13.10371886230362
ONEWEB-0049             
1 45154U 20008Z   24307.83330960 -.00000576  00000+0 -16873-2 0  9993
2 45154  87.8919 154.0164 0001061  99.8713 260.2534 13.10371128230586
ONEWEB-0051             
1 45155U 20008AA  24307.78568464 -.00000383  00000+0 -11173-2 0  9994
2 45155  87.8890 138.9024 0001488  78.3699 281.7596 13.11416459233575
ONEWEB-0052             
1 45156U 20008AB  24307.82999129 -.00000551  00000+0 -16154-2 0  9997
2 45156  87.8901 153.9784 0001084 105.7187 254.4059 13.10368729230492
ONEWEB-0053             
1 45157U 20008AC  24307.81177121  .00000343  00000+0  94614-3 0  9992
2 45157  87.8912 154.0377 0001785  86.8756 273.2576 13.10370129230461
ONEWEB-0054             
1 45158U 20008AD  24307.84659303 -.00000584  00000+0 -17101-2 0  9997
2 45158  87.8913 154.0099 0001393  79.4874 280.6410 13.10375769230585
